SES-3                   
1 37748U 11035A   26094.51233750 -.00000101  00000+0  00000+0 0  9997
2 37748   1.1362  83.8506 0003458 295.8621 254.5472  1.00271518 53852
KAZSAT-2                
1 37749U 11035B   26094.22058874 -.00000198  00000+0  00000+0 0  9994
2 37749   0.0396 327.0971 0001277 117.4627 273.8965  1.00270853 52658
ASTRA 1N                
1 37775U 11041A   26094.09003069  .00000119  00000+0  00000+0 0  9993
2 37775   0.0874  41.2005 0005044 359.6758 203.1299  1.00269556 43780
BSAT-3C (JCSAT-110R)    
1 37776U 11041B   26093.98414572 -.00000353  00000+0  00000+0 0  9997
2 37776   0.0464  38.8948 0000362  14.5663 243.1013  1.00283675 49720
PAKSAT-1R               
1 37779U 11042A   26094.18822532  .00000153  00000+0  00000+0 0  9990
2 37779   0.4971  85.1589 0003104 321.6266 251.4530  1.00278412 53739
ZHONGXING-1A            
1 37804U 11047A   26094.21528663  .00000109  00000+0  00000+0 0  9997
2 37804   3.5281  79.2857 0003967 278.5873 109.2272  1.00042677 26598
COSMOS 2473             
1 37806U 11048A   26094.21623998  .00000133  00000+0  00000+0 0  9994
2 37806   5.3901  74.3817 0004135 149.6877 248.3611  1.00223111  6731
SES-2                   
1 37809U 11049A   26094.17961351 -.00000197  00000+0  00000+0 0  9992
2 37809   0.0544  65.7512 0002948 309.8626 154.5451  1.00272411 53220
ARABSAT-5C              
1 37810U 11049B   26094.19419966  .00000122  00000+0  00000+0 0  9993
2 37810   0.0559  22.1436 0002773 354.2790 265.9839  1.00270748 53297
EUTELSAT 7 WEST A       
1 37816U 11051A   26094.17481314 -.00000061  00000+0  00000+0 0  9999
2 37816   0.0774  29.8657 0001620  90.2120 128.0056  1.00272662 53135
QUETZSAT 1              
1 37826U 11054A   26094.23227337 -.00000242  00000+0  00000+0 0  9994
2 37826   0.0494  59.2742 0002321 313.5282 186.3740  1.00272088 49130
INTELSAT 18 (IS-18)     
1 37834U 11056A   26094.21190662  .00000053  00000+0  00000+0 0  9992
2 37834   0.0177 250.8938 0001978 124.3087  73.6110  1.00273746 53069
EUTELSAT 16A            
1 37836U 11057A   26094.19419966  .00000103  00000+0  00000+0 0  9999
2 37836   0.0583  14.9844 0005547   2.3828 261.0447  1.00272864  6593
VIASAT-1                
1 37843U 11059A   26094.58124459 -.00000024  00000+0  00000+0 0  9995
2 37843   0.0181 225.8067 0002529 152.4126 268.8224  1.00273130 46588
ASIASAT 7               
1 37933U 11069A   26094.05451933 -.00000335  00000+0  00000+0 0  9993
2 37933   0.0181 186.3144 0001782 188.4836 302.6876  1.00274928 44115
AMOS-5                  
1 37950U 11074A   26093.91152613 -.00000315  00000+0  00000+0 0  9993
2 37950   8.6445  61.5532 0002565 332.1999 230.5414  1.00186676 52257
LUCH-5A                 
1 37951U 11074B   26094.23030840 -.00000047  00000+0  00000+0 0  9999
2 37951   8.5670  74.8810 0003176 284.4600  83.0440  1.00271206 52311
